NORAD_CAT_ID,OBJECT_NAME,OBJECT_TYPE,EPOCH,MEAN_MOTION,ECCENTRICITY,INCLINATION,RA_OF_ASC_NODE,ARG_OF_PERICENTER,MEAN_ANOMALY,BSTAR,MEAN_MOTION_DOT,MEAN_MOTION_DDOT,TLE_LINE0,TLE_LINE1,TLE_LINE2,SEMIMAJOR_AXIS,PERIOD,APOGEE,PERIGEE,DECAYED
50817.0,STARLINK-3341,PAYLOAD,2022-06-12 18:39:15,15.08833654,0.000252,53.2172,180.9309,41.5848,318.5335,8.6121e-05,1.082e-05,0.0,0 STARLINK-3341,1 50817U 22001Q   22163.77725955  .00001082  00000-0  86121-4 0  9990,2 50817  53.2172 180.9309 0002520  41.5848 318.5335 15.08833654 24201,6917.9,95.438,541.508,538.021,0.0
50817.0,STARLINK-3341,PAYLOAD,2022-06-13 01:00:47,15.088356400000002,0.0002527,53.2171,179.7413,42.3157,317.8029,8.542100000000001e-05,1.071e-05,0.0,0 STARLINK-3341,1 50817U 22001Q   22164.04221976  .00001071  00000-0  85421-4 0  9995,2 50817  53.2171 179.7413 0002527  42.3157 317.8029 15.08835640 25492,6917.894,95.438,541.507,538.011,0.0
50817.0,STARLINK-3341,PAYLOAD,2022-06-13 07:22:20,15.08838228,0.0002546,53.217,178.55200000000005,42.7927,317.3263,0.00010096,1.319e-05,0.0,0 STARLINK-3341,1 50817U 22001Q   22164.30717871  .00001319  00000-0  10096-3 0  9998,2 50817  53.2170 178.5520 0002546  42.7927 317.3263 15.08838228 24283,6917.886,95.438,541.512,537.99,0.0
50817.0,STARLINK-3341,PAYLOAD,2022-06-13 18:30:02,15.08840711,0.0002582,53.2171,176.4707,43.2239,316.8955,0.00010382,1.364e-05,0.0,0 STARLINK-3341,1 50817U 22001Q   22164.77085763  .00001364  00000-0  10382-3 0  9995,2 50817  53.2171 176.4707 0002582  43.2239 316.8955 15.08840711 24350,6917.878000000002,95.438,541.529,537.957,0.0
50817.0,STARLINK-3341,PAYLOAD,2022-06-14 05:37:43,15.08846248,0.0002593,53.2171,174.3891,44.2152,315.9047,0.00013135,1.803e-05,0.0,0 STARLINK-3341,1 50817U 22001Q   22165.23453475  .00001803  00000-0  13135-3 0  9993,2 50817  53.2171 174.3891 0002593  44.2152 315.9047 15.08846248 25677,6917.861,95.437,541.52,537.932,0.0
50817.0,STARLINK-3341,PAYLOAD,2022-06-14 10:23:53,15.08847262,0.0002634999999999,53.2171,173.4973,43.8767,316.2434,0.00013249,1.821e-05,0.0,0 STARLINK-3341,1 50817U 22001Q   22165.43325406  .00001821  00000-0  13249-3 0  9993,2 50817  53.2171 173.4973 0002635  43.8767 316.2434 15.08847262 24458,6917.858,95.437,541.5459999999998,537.9,0.0
50817.0,STARLINK-3341,PAYLOAD,2022-06-15 07:03:53,15.08852721,0.0002669,53.217,169.6316,45.3662,314.7547,0.00014084,1.955e-05,0.0,0 STARLINK-3341,1 50817U 22001Q   22166.29436647  .00001955  00000-0  14084-3 0  9994,2 50817  53.2170 169.6316 0002669  45.3662 314.7547 15.08852721 25830,6917.842,95.437,541.553,537.86,0.0
50817.0,STARLINK-3341,PAYLOAD,2022-06-15 16:36:12,15.08843675,0.0002671,53.2166,167.8478,43.5851,316.5352,2.9972e-05,1.89e-06,0.0,0 STARLINK-3341,1 50817U 22001Q   22166.69181330  .00000189  00000-0  29972-4 0  9995,2 50817  53.2166 167.8478 0002671  43.5851 316.5352 15.08843675 25895,6917.869000000002,95.437,541.582,537.886,0.0
50817.0,STARLINK-3341,PAYLOAD,2022-06-16 00:33:08,15.08842806,0.0002683,53.2166,166.361,44.526,315.5947,2.2726e-05,7.3e-07,0.0,0 STARLINK-3341,1 50817U 22001Q   22167.02301342  .00000073  00000-0  22726-4 0  9992,2 50817  53.2166 166.3610 0002683  44.5260 315.5947 15.08842806 24696,6917.871999999999,95.437,541.5930000000002,537.881,0.0
50817.0,STARLINK-3341,PAYLOAD,2022-06-19 11:13:10,15.08849363,0.0002865,53.2168,150.8979,50.9124,309.2123,0.0001531999999999,2.151e-05,0.0,0 STARLINK-3341,1 50817U 22001Q   22170.46748426  .00002151  00000-0  15320-3 0  9992,2 50817  53.2168 150.8979 0002865  50.9124 309.2123 15.08849363 25216,6917.852,95.437,541.6990000000002,537.735,0.0
50817.0,STARLINK-3341,PAYLOAD,2022-06-20 04:42:25,15.08844977,0.0003076,53.2176,147.6261,54.2806,305.8472,7.1425e-05,8.48e-06,0.0,0 STARLINK-3341,1 50817U 22001Q   22171.19612770  .00000848  00000-0  71425-4 0  9995,2 50817  53.2176 147.6261 0003076  54.2806 305.8472 15.08844977 26577,6917.865,95.437,541.8580000000002,537.602,0.0
50817.0,STARLINK-3341,PAYLOAD,2022-06-20 07:53:11,15.08843733,0.0002818,53.2171,147.031,51.8409,308.2837,2.6555e-05,1.34e-06,0.0,0 STARLINK-3341,1 50817U 22001Q   22171.32860871  .00000134  00000-0  26555-4 0  9999,2 50817  53.2171 147.0310 0002818  51.8409 308.2837 15.08843733 25341,6917.869000000002,95.437,541.683,537.785,0.0
50817.0,STARLINK-3341,PAYLOAD,2022-06-20 15:50:08,15.08833433,0.0002953,53.2167,145.5445,53.4474,306.6789,-5.9061e-05,-1.228e-05,0.0,0 STARLINK-3341,1 50817U 22001Q   22171.65981803 -.00001228  00000-0 -59061-4 0  9999,2 50817  53.2167 145.5445 0002953  53.4474 306.6789 15.08833433 26646,6917.9,95.438,541.808,537.7230000000002,0.0
50817.0,STARLINK-3341,PAYLOAD,2022-06-21 04:33:13,15.08831181,0.0003012,53.2163,143.1659,55.2876,304.84,-9.6514e-05,-1.824e-05,0.0,0 STARLINK-3341,1 50817U 22001Q   22172.18974248 -.00001824  00000-0 -96514-4 0  9999,2 50817  53.2163 143.1659 0003012  55.2876 304.8400 15.08831181 25474,6917.906999999997,95.438,541.856,537.689,0.0
50817.0,STARLINK-3341,PAYLOAD,2022-06-21 22:02:28,15.08831608,0.000283,53.2185,139.8956,52.2674,307.8574,-2.2161e-05,-6.41e-06,0.0,0 STARLINK-3341,1 50817U 22001Q   22172.91838341 -.00000641  00000-0 -22161-4 0  9996,2 50817  53.2185 139.8956 0002830  52.2674 307.8574 15.08831608 26830,6917.906,95.438,541.729,537.813,0.0
50817.0,STARLINK-3341,PAYLOAD,2022-06-22 07:34:47,15.08832341,0.0002875,53.2177,138.1114,54.273,305.8529,2.5899e-05,1.24e-06,0.0,0 STARLINK-3341,1 50817U 22001Q   22173.31582395  .00000124  00000-0  25899-4 0  9991,2 50817  53.2177 138.1114 0002875  54.2730 305.8529 15.08832341 25644,6917.904,95.438,541.758,537.78,0.0
50817.0,STARLINK-3341,PAYLOAD,2022-06-23 04:14:47,15.08833866,0.0002856999999999,53.218,134.246,54.0563,306.0694,0.00017856,2.554e-05,0.0,0 STARLINK-3341,1 50817U 22001Q   22174.17694287  .00002554  00000-0  17856-3 0  9992,2 50817  53.2180 134.2460 0002857  54.0563 306.0694 15.08833866 27024,6917.899,95.438,541.741,537.788,0.0
50817.0,STARLINK-3341,PAYLOAD,2022-06-23 07:25:33,15.08837906,0.0002864,53.2178,133.651,54.2592,305.8666,0.00018516,2.659e-05,0.0,0 STARLINK-3341,1 50817U 22001Q   22174.30942079  .00002659  00000-0  18516-3 0  9992,2 50817  53.2178 133.6510 0002864  54.2592 305.8666 15.08837906 25799,6917.887,95.438,541.7330000000002,537.771,0.0
50817.0,STARLINK-3341,PAYLOAD,2022-06-23 13:47:07,15.08830088,0.0002912,53.2178,132.46200000000002,52.9183,307.2075,0.0001963,2.836e-05,0.0,0 STARLINK-3341,1 50817U 22001Q   22174.57438692  .00002836  00000-0  19630-3 0  9997,2 50817  53.2178 132.4620 0002912  52.9183 307.2075 15.08830088 25832,6917.911,95.438,541.79,537.761,0.0
50817.0,STARLINK-3341,PAYLOAD,2022-06-24 04:05:35,15.08831297,0.0002737,53.2169,129.7888,53.3502,306.7742,8.3056e-05,1.033e-05,0.0,0 STARLINK-3341,1 50817U 22001Q   22175.17055323  .00001033  00000-0  83056-4 0  9992,2 50817  53.2169 129.7888 0002737  53.3502 306.7742 15.08831297 27179,6917.906999999997,95.438,541.665,537.879,0.0
50817.0,STARLINK-3341,PAYLOAD,2022-06-24 13:37:54,15.08841355,0.0002812,53.218,128.0035,60.0868,300.0403,3.6943e-05,2.99e-06,0.0,0 STARLINK-3341,1 50817U 22001Q   22175.56798750  .00000299  00000-0  36943-4 0  9999,2 50817  53.2180 128.0035 0002812  60.0868 300.0403 15.08841355 27236,6917.876,95.437,541.687,537.7959999999998,0.0
50817.0,STARLINK-3341,PAYLOAD,2022-06-25 03:56:21,15.08868812,0.0002689,53.2182,125.3273,58.4083,301.7171,-0.00017137,-3.017e-05,0.0,0 STARLINK-3341,1 50817U 22001Q   22176.16413726 -.00003017  00000-0 -17137-3 0  9999,2 50817  53.2182 125.3273 0002689  58.4083 301.7171 15.08868812 27321,6917.792,95.436,541.518,537.797,0.0
50817.0,STARLINK-3341,PAYLOAD,2022-06-25 07:07:07,15.088662300000005,0.0002727,53.2182,124.7332,64.7118,295.4157,-0.00020743,-3.591e-05,0.0,0 STARLINK-3341,1 50817U 22001Q   22176.29661796 -.00003591  00000-0 -20743-3 0  9999,2 50817  53.2182 124.7332 0002727  64.7118 295.4157 15.08866230 26090,6917.8,95.436,541.552,537.779,0.0
50817.0,STARLINK-3341,PAYLOAD,2022-06-25 13:28:40,15.08858544,0.0002609,53.2175,123.543,61.6939,298.4316,-0.00032439,-5.45e-05,0.0,0 STARLINK-3341,1 50817U 22001Q   22176.56158279 -.00005450  00000-0 -32439-3 0  9997,2 50817  53.2175 123.5430 0002609  61.6939 298.4316 15.08858544 27386,6917.824000000001,95.436,541.494,537.884,0.0
50817.0,STARLINK-3341,PAYLOAD,2022-06-25 19:50:13,15.08844791,0.000263,53.2171,122.3524,56.8081,303.3163,-2.3713e-05,-6.66e-06,0.0,0 STARLINK-3341,1 50817U 22001Q   22176.82654357 -.00000666  00000-0 -23713-4 0  9994,2 50817  53.2171 122.3524 0002630  56.8081 303.3163 15.08844791 26172,6917.866,95.437,541.55,537.911,0.0
50817.0,STARLINK-3341,PAYLOAD,2022-06-26 03:47:08,15.08844518,0.0002614,53.2173,120.8655,55.9978,304.1262,8.5042e-05,1.065e-05,0.0,0 STARLINK-3341,1 50817U 22001Q   22177.15774250  .00001065  00000-0  85042-4 0  9991,2 50817  53.2173 120.8655 0002614  55.9978 304.1262 15.08844518 27479,6917.8669999999975,95.437,541.54,537.923,0.0
50817.0,STARLINK-3341,PAYLOAD,2022-06-26 13:19:27,15.08845114,0.0002646,53.2169,119.081,54.3148,305.809,3.2946e-05,2.36e-06,0.0,0 STARLINK-3341,1 50817U 22001Q   22177.55518206  .00000236  00000-0  32946-4 0  9996,2 50817  53.2169 119.0810 0002646  54.3148 305.8090 15.08845114 26282,6917.865,95.437,541.56,537.899,0.0
50817.0,STARLINK-3341,PAYLOAD,2022-06-27 03:37:56,15.08843872,0.0002643,53.2177,116.4049,56.1913,303.9331,-1.8769e-05,-5.87e-06,0.0,0 STARLINK-3341,1 50817U 22001Q   22178.15134274 -.00000587  00000-0 -18769-4 0  9990,2 50817  53.2177 116.4049 0002643  56.1913 303.9331 15.08843872 27628,6917.869000000002,95.437,541.562,537.905,0.0
50817.0,STARLINK-3341,PAYLOAD,2022-06-27 19:31:46,15.08845656,0.0002666,53.2182,113.4309,57.1332,302.9916,9.8903e-05,1.286e-05,0.0,0 STARLINK-3341,1 50817U 22001Q   22178.81373564  .00001286  00000-0  98903-4 0  9993,2 50817  53.2182 113.4309 0002666  57.1332 302.9916 15.08845656 26473,6917.863,95.437,541.572,537.884,0.0
